COSMOS 2433 (720)       
1 32275U 07052A   22142.08029111 -.00000072  00000+0  00000+0 0  9994
2 32275  66.0825   5.5445 0000865 294.9339 253.2224  2.13104126113408
COSMOS 2432 (719)       
1 32276U 07052B   22142.91363499 -.00000072  00000+0  00000+0 0  9997
2 32276  66.0948   5.6206 0010326 341.0367  74.8330  2.13103470113427
COSMOS 2434 (721)       
1 32393U 07065A   22142.46579777 -.00000026  00000+0  00000+0 0  9998
2 32393  64.3882 242.3124 0003113  89.7374 283.6438  2.13103233112126
COSMOS 2436 (723)       
1 32395U 07065C   22142.82510036 -.00000030  00000+0  00000+0 0  9998
2 32395  64.3975 242.3569 0015130   1.8614  63.0606  2.13103064112060
COSMOS 2456 (730)       
1 36111U 09070A   22142.45855156  .00000074  00000+0  00000+0 0  9997
2 36111  64.3473 121.9468 0006254 303.5021 230.2461  2.13099298 96784
COSMOS 2457 (733)       
1 36112U 09070B   22142.73299198  .00000074  00000+0  00000+0 0  9997
2 36112  64.3307 121.8139 0004158 200.4950 310.8801  2.13101495 96799
COSMOS 2461 (735)       
1 36401U 10007B   22142.92630049 -.00000071  00000+0  00000+0 0  9993
2 36401  65.9678   4.3591 0021673  11.6838 322.9568  2.13103653 95143
COSMOS 2460 (732)       
1 36402U 10007C   22142.17143001 -.00000071  00000+0  00000+0 0  9998
2 36402  65.9559   4.3346 0002489  48.7558  14.9473  2.13106489 95136
COSMOS 2464 (736)       
1 37139U 10041C   22142.71032071 -.00000029  00000+0  00000+0 0  9991
2 37139  63.9889 241.3919 0028678  11.6197  47.7711  2.13100840 91201
COSMOS 2476 (744)       
1 37867U 11064A   22142.11005285  .00000075  00000+0  00000+0 0  9996
2 37867  64.6364 123.3051 0023145 241.8571 289.8326  2.13101922 82122
COSMOS 2477 (745)       
1 37868U 11064B   22142.77334611  .00000077  00000+0  00000+0 0  9999
2 37868  64.6443 123.3469 0020529 243.1615 255.5033  2.13101702 82098
COSMOS 2475 (743)       
1 37869U 11064C   22142.82927512  .00000077  00000+0  00000+0 0  9994
2 37869  64.6522 123.3527 0025253 258.8670 240.6871  2.13102028 82104
COSMOS 2485 (747)       
1 39155U 13019A   22141.58476883  .00000073  00000+0  00000+0 0  9994
2 39155  64.8007 123.7449 0023513 237.7294 295.3689  2.13102002 70581
COSMOS 2492 (754)       
1 39620U 14012A   22142.71963943 -.00000071  00000+0  00000+0 0  9998
2 39620  65.8401   4.0001 0013058 334.1247  24.1124  2.13103205 63552
COSMOS 2500 (755)       
1 40001U 14032A   22142.94111066 -.00000071  00000+0  00000+0 0  9991
2 40001  65.7838   3.8571 0004355 187.3930 199.4876  2.13102481 61784
COSMOS 2501 (702K)      
1 40315U 14075A   22142.89598223 -.00000031  00000+0  00000+0 0  9990
2 40315  63.6950 242.0650 0018150 208.2273 311.8854  2.13101357 58187
COSMOS 2514 (751)       
1 41330U 16008A   22142.19726696 -.00000071  00000+0  00000+0 0  9990
2 41330  65.5817   3.5796 0007962 203.7219 156.2891  2.13102710 48936
COSMOS 2516 (753)       
1 41554U 16032A   22142.95758287 -.00000032  00000+0  00000+0 0  9997
2 41554  63.9216 242.3305 0014131 214.3892 271.1120  2.13106428 46557
COSMOS 2522 (752)       
1 42939U 17055A   22142.50515940 -.00000027  00000+0  00000+0 0  9993
2 42939  64.1543 242.7337 0007298 239.1168 116.5371  2.13101999 36295
COSMOS 2527 (756)       
1 43508U 18053A   22142.14720748  .00000076  00000+0  00000+0 0  9992
2 43508  64.9636 123.7202 0009773 243.6244 229.5308  2.13102577 30587
COSMOS 2529 (757)       
1 43687U 18086A   22142.62413097 -.00000028  00000+0  00000+0 0  9993
2 43687  64.3696 243.0395 0009106 264.7059 137.7387  2.13102186 27615
COSMOS 2534 (758)       
1 44299U 19030A   22142.37453847 -.00000025  00000+0  00000+0 0  9999
2 44299  64.4427 242.9295 0011577 287.8000  57.7569  2.13102100 23246
COSMOS 2544 (759)       
1 44850U 19088A   22142.53159866  .00000077  00000+0  00000+0 0  9993
2 44850  64.9495 123.5608 0014697 264.1221 187.4144  2.13102355 19023
COSMOS 2545 (760)       
1 45358U 20018A   22142.36238339 -.00000073  00000+0  00000+0 0  9993
2 45358  64.9185   4.2038 0006840 255.1344 276.0908  2.13102707 16977
COSMOS 2547 (705K)      
1 46805U 20075A   22142.95541273 -.00000031  00000+0  00000+0 0  9997
2 46805  64.6672 242.3272 0006673 243.4754 235.3114  2.13103296 12233
